[{"OBJECT_NAME":"RROCI-2","OBJECT_ID":"2024-043J","EPOCH":"2026-03-09T21:40:56.693280","MEAN_MOTION":14.99383357,"ECCENTRICITY":0.00054118,"INCLINATION":97.8279,"RA_OF_ASC_NODE":200.9973,"ARG_OF_PERICENTER":337.3784,"MEAN_ANOMALY":22.7199,"EPHEMERIS_TYPE":0,"CLASSIFICATION_TYPE":"U","NORAD_CAT_ID":59106,"ELEMENT_SET_NO":999,"REV_AT_EPOCH":10988,"BSTAR":0.00035067832,"MEAN_MOTION_DOT":4.232e-5,"MEAN_MOTION_DDOT":0},{"OBJECT_NAME":"STARLINK-32910","OBJECT_ID":"2025-037N","EPOCH":"2026-03-09T23:21:53.835264","MEAN_MOTION":14.98327777,"ECCENTRICITY":0.00025697,"INCLINATION":70.0042,"RA_OF_ASC_NODE":353.7719,"ARG_OF_PERICENTER":252.3514,"MEAN_ANOMALY":107.7365,"EPHEMERIS_TYPE":0,"CLASSIFICATION_TYPE":"U","NORAD_CAT_ID":63089,"ELEMENT_SET_NO":999,"REV_AT_EPOCH":5864,"BSTAR":0.0013295656,"MEAN_MOTION_DOT":0.00015806,"MEAN_MOTION_DDOT":0}]
